{"type": "FeatureCollection", "features": [ {"type": "Feature", "properties": {"norad_id": 43648, "name": "BEIDOU-3 M15 (C34)", "group": "gnss", "lat": -29.61103146784604, "lon": 150.45700848357222, "alt_km": 21541.889964078073, "timestamp": "2025-12-17T23:38:07.097221+00:00", "meta": {"OBJECT_NAME": "BEIDOU-3 M15 (C34)", "OBJECT_ID": "2018-078B", "EPOCH": "2025-12-17T02:57:51.837696", "MEAN_MOTION": 1.86232126, "ECCENTRICITY": 0.00038449, "INCLINATION": 54.2536, "RA_OF_ASC_NODE": 306.3681, "ARG_OF_PERICENTER": 19.6728, "MEAN_ANOMALY": 340.3287, "EPHEMERIS_TYPE": 0, "CLASSIFICATION_TYPE": "U", "NORAD_CAT_ID": 43648, "ELEMENT_SET_NO": 999, "REV_AT_EPOCH": 4878, "BSTAR": 0, "MEAN_MOTION_DOT": -9.2e-07, "MEAN_MOTION_DDOT": 0}, "tle": {"line1": "1 43648U 18078B   25351.12351664 -.00000092  00000+0  00000+0 0  9993", "line2": "2 43648  54.2536 306.3681 0003844  19.6728 340.3287  1.86232126 48786"}}, "geometry": {"type": "Point", "coordinates": [150.45700848357222, -29.61103146784604]}}, {"type": "Feature", "properties": {"norad_id": 43683, "name": "BEIDOU-3 G1 (C59)", "group": "gnss", "lat": 2.2782091401636437, "lon": -138.5373786788799, "alt_km": 35784.061548860474, "timestamp": "2025-12-17T23:38:07.097242+00:00", "meta": {"OBJECT_NAME": "BEIDOU-3 G1 (C59)", "OBJECT_ID": "2018-085A", "EPOCH": "2025-12-17T15:42:16.379136", "MEAN_MOTION": 1.00269508, "ECCENTRICITY": 0.00016389, "INCLINATION": 2.6197, "RA_OF_ASC_NODE": 102.8231, "ARG_OF_PERICENTER": 49.2154, "MEAN_ANOMALY": 310.1037, "EPHEMERIS_TYPE": 0, "CLASSIFICATION_TYPE": "U", "NORAD_CAT_ID": 43683, "ELEMENT_SET_NO": 999, "REV_AT_EPOCH": 2624, "BSTAR": 0, "MEAN_MOTION_DOT": -2.54e-06, "MEAN_MOTION_DDOT": 0}, "tle": {"line1": "1 43683U 18085A   25351.65435624 -.00000254  00000+0  00000+0 0  9997", "line2": "2 43683   2.6197 102.8231 0001638  49.2154 310.1037  1.00269508 26241"}}, "geometry": {"type": "Point", "coordinates": [-138.5373786788799, 2.2782091401636437]}}, {"type": "Feature", "properties": {"norad_id": 43687, "name": "COSMOS 2529 (757)", "group": "gnss", "lat": -41.95232585776716, "lon": 173.04696898492242, "alt_km": 19125.563611583148, "timestamp": "2025-12-17T23:38:07.097260+00:00", "meta": {"OBJECT_NAME": "COSMOS 2529 (757)", "OBJECT_ID": "2018-086A", "EPOCH": "2025-12-17T02:36:34.858656", "MEAN_MOTION": 2.13102066, "ECCENTRICITY": 0.00070854, "INCLINATION": 64.292, "RA_OF_ASC_NODE": 198.7408, "ARG_OF_PERICENTER": 253.7168, "MEAN_ANOMALY": 106.2877, "EPHEMERIS_TYPE": 0, "CLASSIFICATION_TYPE": "U", "NORAD_CAT_ID": 43687, "ELEMENT_SET_NO": 999, "REV_AT_EPOCH": 5540, "BSTAR": 0, "MEAN_MOTION_DOT": 1.11e-06, "MEAN_MOTION_DDOT": 0}, "tle": {"line1": "1 43687U 18086A   25351.10873679  .00000111  00000+0  00000+0 0  9999", "line2": "2 43687  64.2920 198.7408 0007085 253.7168 106.2877  2.13102066 55408"}}, "geometry": {"type": "Point", "coordinates": [173.04696898492242, -41.95232585776716]}}, {"type": "Feature", "properties": {"norad_id": 43706, "name": "BEIDOU-3 M17 (C36)", "group": "gnss", "lat": 49.12635448413153, "lon": -48.18080669421526, "alt_km": 21538.83815907199, "timestamp": "2025-12-17T23:38:07.097278+00:00", "meta": {"OBJECT_NAME": "BEIDOU-3 M17 (C36)", "OBJECT_ID": "2018-093A", "EPOCH": "2025-12-15T07:56:44.520576", "MEAN_MOTION": 1.86228523, "ECCENTRICITY": 0.00061371, "INCLINATION": 54.1729, "RA_OF_ASC_NODE": 188.5337, "ARG_OF_PERICENTER": 307.6759, "MEAN_ANOMALY": 184.25, "EPHEMERIS_TYPE": 0, "CLASSIFICATION_TYPE": "U", "NORAD_CAT_ID": 43706, "ELEMENT_SET_NO": 999, "REV_AT_EPOCH": 4811, "BSTAR": 0, "MEAN_MOTION_DOT": 1.13e-06, "MEAN_MOTION_DDOT": 0}, "tle": {"line1": "1 43706U 18093A   25349.33107084  .00000113  00000+0  00000+0 0  9993", "line2": "2 43706  54.1729 188.5337 0006137 307.6759 184.2500  1.86228523 48110"}}, "geometry": {"type": "Point", "coordinates": [-48.18080669421526, 49.12635448413153]}}, {"type": "Feature", "properties": {"norad_id": 43707, "name": "BEIDOU-3 M18 (C37)", "group": "gnss", "lat": -19.17669973986595, "lon": 22.99975389134453, "alt_km": 21546.269696692645, "timestamp": "2025-12-17T23:38:07.097296+00:00", "meta": {"OBJECT_NAME": "BEIDOU-3 M18 (C37)", "OBJECT_ID": "2018-093B", "EPOCH": "2025-12-16T14:33:42.784416", "MEAN_MOTION": 1.8622677, "ECCENTRICITY": 0.00063186, "INCLINATION": 54.1735, "RA_OF_ASC_NODE": 188.4822, "ARG_OF_PERICENTER": 353.2257, "MEAN_ANOMALY": 6.8349, "EPHEMERIS_TYPE": 0, "CLASSIFICATION_TYPE": "U", "NORAD_CAT_ID": 43707, "ELEMENT_SET_NO": 999, "REV_AT_EPOCH": 4813, "BSTAR": 0, "MEAN_MOTION_DOT": 1.15e-06, "MEAN_MOTION_DDOT": 0}, "tle": {"line1": "1 43707U 18093B   25350.60674519  .00000115  00000+0  00000+0 0  9990", "line2": "2 43707  54.1735 188.4822 0006318 353.2257   6.8349  1.86226770 48131"}}, "geometry": {"type": "Point", "coordinates": [22.99975389134453, -19.17669973986595]}}, {"type": "Feature", "properties": {"norad_id": 43873, "name": "GPS BIII-1  (PRN 04)", "group": "gnss", "lat": -23.76701954279212, "lon": 81.77463770598024, "alt_km": 20257.288342715143, "timestamp": "2025-12-17T23:38:07.097316+00:00", "meta": {"OBJECT_NAME": "GPS BIII-1  (PRN 04)", "OBJECT_ID": "2018-109A", "EPOCH": "2025-12-15T18:29:34.483200", "MEAN_MOTION": 2.00553802, "ECCENTRICITY": 0.00374359, "INCLINATION": 55.5688, "RA_OF_ASC_NODE": 99.4273, "ARG_OF_PERICENTER": 195.145, "MEAN_ANOMALY": 336.5518, "EPHEMERIS_TYPE": 0, "CLASSIFICATION_TYPE": "U", "NORAD_CAT_ID": 43873, "ELEMENT_SET_NO": 999, "REV_AT_EPOCH": 5139, "BSTAR": 0, "MEAN_MOTION_DOT": -3.2e-07, "MEAN_MOTION_DDOT": 0}, "tle": {"line1": "1 43873U 18109A   25349.77053800 -.00000032  00000+0  00000+0 0  9991", "line2": "2 43873  55.5688  99.4273 0037435 195.1450 336.5518  2.00553802 51399"}}, "geometry": {"type": "Point", "coordinates": [81.77463770598024, -23.76701954279212]}}, {"type": "Feature", "properties": {"norad_id": 44204, "name": "BEIDOU-3 IGSO-1 (C38)", "group": "gnss", "lat": 21.925717802549514, "lon": -154.74142667487416, "alt_km": 35748.00696760206, "timestamp": "2025-12-17T23:38:07.097334+00:00", "meta": {"OBJECT_NAME": "BEIDOU-3 IGSO-1 (C38)", "OBJECT_ID": "2019-023A", "EPOCH": "2025-11-19T14:15:02.708640", "MEAN_MOTION": 1.00252177, "ECCENTRICITY": 0.0026966, "INCLINATION": 58.4003, "RA_OF_ASC_NODE": 39.8168, "ARG_OF_PERICENTER": 221.2202, "MEAN_ANOMALY": 126.9723, "EPHEMERIS_TYPE": 0, "CLASSIFICATION_TYPE": "U", "NORAD_CAT_ID": 44204, "ELEMENT_SET_NO": 999, "REV_AT_EPOCH": 510, "BSTAR": 0, "MEAN_MOTION_DOT": -2.26e-06, "MEAN_MOTION_DDOT": 0}, "tle": {"line1": "1 44204U 19023A   25323.59378135 -.00000226  00000+0  00000+0 0  9994", "line2": "2 44204  58.4003  39.8168 0026966 221.2202 126.9723  1.00252177  5102"}}, "geometry": {"type": "Point", "coordinates": [-154.74142667487416, 21.925717802549514]}}, {"type": "Feature", "properties": {"norad_id": 44231, "name": "BEIDOU-2 G8 (C01)", "group": "gnss", "lat": 0.7899633132742652, "lon": -134.2922604449144, "alt_km": 35798.48854532018, "timestamp": "2025-12-17T23:38:07.097358+00:00", "meta": {"OBJECT_NAME": "BEIDOU-2 G8 (C01)", "OBJECT_ID": "2019-027A", "EPOCH": "2025-12-17T15:43:31.259424", "MEAN_MOTION": 1.00267, "ECCENTRICITY": 0.00087511, "INCLINATION": 1.6742, "RA_OF_ASC_NODE": 74.7239, "ARG_OF_PERICENTER": 258.8282, "MEAN_ANOMALY": 133.2809, "EPHEMERIS_TYPE": 0, "CLASSIFICATION_TYPE": "U", "NORAD_CAT_ID": 44231, "ELEMENT_SET_NO": 999, "REV_AT_EPOCH": 2426, "BSTAR": 0, "MEAN_MOTION_DOT": -2.25e-06, "MEAN_MOTION_DDOT": 0}, "tle": {"line1": "1 44231U 19027A   25351.65522291 -.00000225  00000+0  00000+0 0  9999", "line2": "2 44231   1.6742  74.7239 0008751 258.8282 133.2809  1.00267000 24260"}}, "geometry": {"type": "Point", "coordinates": [-134.2922604449144, 0.7899633132742652]}}, {"type": "Feature", "properties": {"norad_id": 44299, "name": "COSMOS 2534 (758)", "group": "gnss", "lat": 64.12305818937027, "lon": -79.33279416506304, "alt_km": 19144.30917517077, "timestamp": "2025-12-17T23:38:07.097379+00:00", "meta": {"OBJECT_NAME": "COSMOS 2534 (758)", "OBJECT_ID": "2019-030A", "EPOCH": "2025-12-17T15:21:55.827072", "MEAN_MOTION": 2.13102433, "ECCENTRICITY": 0.00087807, "INCLINATION": 64.3657, "RA_OF_ASC_NODE": 198.7279, "ARG_OF_PERICENTER": 284.0584, "MEAN_ANOMALY": 258.113, "EPHEMERIS_TYPE": 0, "CLASSIFICATION_TYPE": "U", "NORAD_CAT_ID": 44299, "ELEMENT_SET_NO": 999, "REV_AT_EPOCH": 5105, "BSTAR": 0, "MEAN_MOTION_DOT": 1.11e-06, "MEAN_MOTION_DDOT": 0}, "tle": {"line1": "1 44299U 19030A   25351.64022948  .00000111  00000+0  00000+0 0  9993", "line2": "2 44299  64.3657 198.7279 0008780 284.0584 258.1130  2.13102433 51058"}}, "geometry": {"type": "Point", "coordinates": [-79.33279416506304, 64.12305818937027]}}, {"type": "Feature", "properties": {"norad_id": 44337, "name": "BEIDOU-3 IGSO-2 (C39)", "group": "gnss", "lat": 32.041092729630044, "lon": -173.7395253948248, "alt_km": 35933.336976825805, "timestamp": "2025-12-17T23:38:07.097400+00:00", "meta": {"OBJECT_NAME": "BEIDOU-3 IGSO-2 (C39)", "OBJECT_ID": "2019-035A", "EPOCH": "2025-12-17T08:45:49.715136", "MEAN_MOTION": 1.00269992, "ECCENTRICITY": 0.00374828, "INCLINATION": 55.2268, "RA_OF_ASC_NODE": 160.4607, "ARG_OF_PERICENTER": 202.3509, "MEAN_ANOMALY": 334.3445, "EPHEMERIS_TYPE": 0, "CLASSIFICATION_TYPE": "U", "NORAD_CAT_ID": 44337, "ELEMENT_SET_NO": 999, "REV_AT_EPOCH": 2384, "BSTAR": 0, "MEAN_MOTION_DOT": -4.2e-07, "MEAN_MOTION_DDOT": 0}, "tle": {"line1": "1 44337U 19035A   25351.36515874 -.00000042  00000+0  00000+0 0  9999", "line2": "2 44337  55.2268 160.4607 0037482 202.3509 334.3445  1.00269992 23841"}}, "geometry": {"type": "Point", "coordinates": [-173.7395253948248, 32.041092729630044]}}]}